#dP2021  1 18  0  0  0.00000000      97 __u+U IGS14 FIT  IAC
## 2141  86400.00000000   900.00000000 59232 0.0000000000000
+  120   C01C02C03C04C06C07C08C09C10C11C12C13C14C16C19C20C21
+        C22C23C24C25C26C27C28C29C30C32C33C34C35C36C37C38C39
+        C40C43C44C45C46E01E02E03E04E05E07E08E09E11E12E13E14
+        E15E18E19E21E24E25E26E27E30E31E33E36G01G02G03G04G05
+        G06G07G08G09G10G11G12G13G14G15G16G17G18G19G20G21G22
+        G23G24G25G26G27G28G29G30G31G32J01J02J03J07R01R02R03
+        R04R05R07R08R09R11R12R13R14R15R16R17R18R19R20R21R22
+        R24  0  0  0  0  0  0  0  0  0  0  0  0  0  0  0  0
++        13 13 13 13  8  8  8  8  8  7  7  8  7  8  7  8  7
++         7  7  7  7  7  8  8  8  8  8  7  8  8  8  8  9  9
++         9  9  8  9  9  4  4  4  4  4  4  4  4  4  4  4  4
++         4  4  5  4  4  4  4  4  5  4  5  4  3  4  3  3  4
++         3  3  3  3  3  4  3  3  3  3  4  3  3  4  3  3  4
++         3  3  3  4  3  3  4  3  4  3  8  8  8 14  6  5  5
++         5  6  6  6  7  7  5  6  6  6  6  6  6  6  6  5  6
++         6  0  0  0  0  0  0  0  0  0  0  0  0  0  0  0  0
%c M  cc GPS ccc cccc cccc cccc cccc ccccc ccccc ccccc ccccc
%c cc cc ccc ccc cccc cccc cccc cccc ccccc ccccc ccccc ccccc
%f  1.2500000  1.025000000  0.00000000000  0.000000000000000
%f  0.0000000  0.000000000  0.00000000000  0.000000000000000
%i    0    0    0    0      0      0      0      0         0
%i    0    0    0    0      0      0      0      0         0
/* INFORMATION & ANALYSIS CENTER (IAC)            FINAL DATA
/* S/V CLOCKS ARE ALIGNED TO GNSS TIME                      
/* G:C1WC2W R:C1PC2P E:C1XC5X C:C2IC6I J:C1CC2S             
/* PCV:IGS14_2134 OL/AL:FES2004  NONE     YN ORB:CoN CLK:CoN
*  2021 01 18 13 30  0.00000000
PC01 -34313.440269  24527.368220    169.319205   -661.151900
PC02   4320.413331  41916.042717   -771.064049    584.421857
PC03 -14789.845316  39447.515547     45.709795   -511.412384
PC04 -39630.872800  14419.145423    620.080154   -430.573843
PC06  -7941.309698  24474.271873 -32921.172670     15.395047
PC07 -21543.884883  29047.155596  21506.244249   -239.052084
PC08 -12896.312652  38683.015795  11572.656027   -909.036830
PC09   7650.440429  32124.397233 -25694.265172    795.059856
PC10  -8901.927825  29630.794371  28677.117136   -101.900984
PC11    642.829379 -19490.970367 -19874.838558   -894.663241
PC12  15450.407595  -4906.273644 -22675.004577    737.827827
PC13  -3626.762790  42042.067763  -3119.625785    103.142394
PC14  11145.654384 -16310.873161  19751.871378    -69.064158
PC16  -6254.356931  25026.332415 -33242.110394   -663.942439
PC19    -92.060645  16103.517134 -22768.038946    695.389748
PC20 -19060.126988  14210.796163 -14582.065093   -909.740056
PC21  27536.356686  -3690.665502  -2698.485999   -798.200845
PC22  19488.016521   8744.383032 -17970.504124   -848.725031
PC23 -10721.657613 -14898.904331 -21017.059618   -880.534874
PC24  14486.786530 -22050.193349   9030.486641   -743.885863
PC25   1586.378409 -26322.699988  -9099.604994   -901.728763
PC26  17537.740239  -6305.469309  20749.881884    961.204450
PC27 -20455.010431  -4367.481128  18469.698154    468.462215
PC28 -19657.668714 -19514.880824   3376.180261   -120.260913
PC29   8213.949527  22908.576753  13650.664181    340.247699
PC30  -9186.661856  13286.809248  22754.564563    432.877212
PC32 -27500.778973   3854.923300   2753.225756   -884.442639
PC33    119.660517 -16161.805954  22752.817465   -920.865286
PC34   8654.210645 -13853.926675 -22630.846550   -760.360351
PC35  20206.805646  18969.351927  -3088.192991   -459.911327
PC36  -2432.325098  26371.723440   8827.108839   -774.277894
PC37 -17601.504043   5062.529768 -21048.368908   -860.732711
PC38 -12088.064325  39313.739678   9586.739632    124.641745
PC39  -2938.695873  26187.347971 -32886.742617     27.548087
PC40 -17953.282964  25045.872909  28729.551206    122.494540
PC43  -7674.711034 -22936.207449 -13941.880040   -557.608205
PC44  20712.545052   3763.673664 -18302.891219     -7.073862
PC45  10669.393368  14818.445182  21109.654094    338.516219
PC46 -14047.679118  22653.768268  -8330.676106    446.533658
PE01  21659.799047  -2468.822837  20017.176935  -1027.362592
PE02 -21725.643544   2599.834710 -19947.901009    191.936782
PE03 -28868.592662  -5997.769252  -2556.808132   -388.701892
PE04  21634.018441  -7780.822891  18642.131264   -691.376326
PE05 -19272.179831 -16470.856496  15276.849253   -311.894227
PE07  -1477.001896  17230.824950 -24023.649186   -489.281023
PE08 -21325.888965   7990.979534 -18908.376037   6060.216820
PE09   1197.470623 -17128.034215  24108.533870   5795.020357
PE11   -531.083519 -27743.834497 -10323.238283   6451.607621
PE12  12235.196134 -13417.193954 -23370.950644   5400.641260
PE13    371.313646  27590.675854  10721.209557    410.482037
PE14  12690.191156 -16342.871166 -24984.242449  -1299.006380
PE15 -12108.712817  13474.588379  23422.516912    833.677401
PE18  -3130.475405  15408.615160  17857.825750  -1419.757363
PE19  28617.695342   7543.227366    357.661073    181.488723
PE21   8486.550469  14582.426380  24319.763761   -643.531147
PE24  10608.542780 -23738.771273 -14129.005619   -696.135169
PE25  -8346.188017 -14697.147724 -24294.398438   -524.581126
PE26  12859.446033  25143.801202  -8861.255868   2251.144473
PE27 -10020.659184  23723.116196  14610.821868     48.562489
PE30 -22868.519714  18306.635143  -4343.283515   3253.038626
PE31  22521.266908 -18854.660047   3633.494304   -477.470690
PE33  17442.386475   8548.799653 -22320.049427   -464.963367
PE36 -12628.352485 -25462.186842   8287.380365    452.600765
PG01 -13416.915840   9466.999328  20554.543784    778.061014
PG02  13462.505576  14807.801648 -16797.278431   -567.330730
PG03 -23045.107395  12930.193576   1984.999610    -59.497804
PG04 -19873.497025   2736.508923 -17428.706209   -173.669798
PG05  19774.704209   1824.354325 -17877.632500    -31.318828
PG06   5897.808298  24779.885280  -7374.167509     -4.501457
PG07  -6985.118654  22824.756974 -10779.572073     26.215874
PG08 -23867.839494  -3122.973556  11558.747397     -7.057821
PG09  -9361.009863  12449.866827 -21577.518458   -314.026764
PG10   2527.009471 -17656.175767  19696.247369    -41.910140
PG11 -17155.271834    687.385511  19737.189835    -49.592939
PG12  24288.112820  -9007.116390   5232.496768     11.257542
PG13  22912.128411  13004.496895   3714.946270     87.253178
PG14  -5384.692469  18119.118546  18649.376406     87.264663
PG15  23929.554119     53.177844  11542.021713   -175.493293
PG16 -18925.513491  -4409.251043 -18544.695260   -266.892950
PG17   7963.088565  18564.142931  17683.098066    381.794496
PG18   5660.955114 -24380.833963  -8806.486979    342.101361
PG19  14908.816994  18861.430825  11100.535926    -50.296362
PG20  12555.841287 -20750.280453  10446.799791    525.109995
PG21 -15708.494556    453.288014  22164.886660     87.881245
PG22 -23022.518060   7732.691045  10752.849670   -696.018246
PG23  13092.744515 -19308.251286  12637.565792    116.508008
PG24  15147.364112  -4554.465067  21068.251783      3.516586
PG25  18393.770466 -17616.516566  -7258.186899     62.272217
PG26  -9872.607442 -12132.457079 -21520.042860     31.752179
PG27 -23565.489154 -12675.167665   -422.846276    -58.508220
PG28  -2401.575464  17066.395021  20827.171651    628.032354
PG29  10660.527952 -10546.039621 -21963.525924   -278.127431
PG30    112.636605  26437.756362   -259.735111   -370.869376
PG31  -7353.994680 -23274.820241  -9952.692992    -94.646968
PG32  -9863.904130 -18321.523796  16692.385018     14.916209
PJ01 -33824.036487  16273.657220 -14545.540820   -336.925806
PJ02 -27955.726467  31098.158675   -742.060060      0.849733
PJ03 -24582.029092  23947.048436  29613.292617     -0.159110
PJ07 -25369.714822  33684.526429    -36.969218 999999.999999
PR01  15402.958015   8421.764874 -18514.017143     73.659924
PR02  25470.517628   -353.466893    364.867449    463.373786
PR03  17786.192831  -8037.921477  16428.488465     29.365203
PR04    207.497388 -10838.367525  23112.060407     70.489070
PR05 -17524.016943  -7742.242171  16861.737466     64.950513
PR07 -17395.598953   8172.310638 -16765.182072    -42.200116
PR08   -213.070515  10931.560489 -22996.332971    -56.916286
PR09 -14652.180178   6507.105755 -19804.146096     19.250007
PR11  -6004.537102  22170.249879  11095.929431      4.416964
PR12   5974.510015  11033.916643  22235.305819    197.668966
PR13  14323.553538  -6282.388951  20128.527998    -49.482301
PR14  14444.727514 -20191.310514   5884.197763     59.987385
PR15   6084.537761 -22001.385416 -11359.756510    105.828960
PR16  -6995.262330 -10044.502958 -22386.495847    -10.337486
PR17   5966.136825 -10143.282488 -22610.827713    392.322938
PR18  -5596.123506 -21229.468790 -13012.640196     63.572438
PR19 -13309.204654 -21579.046029   2804.133271   -128.409573
PR20 -14297.156489  -7934.113686  19609.041233   -431.406774
PR21  -5171.120777  11136.689846  22369.750860   -181.272537
PR22   6172.217105  21543.898563  12084.490331    -93.151703
PR24  14543.066949   6870.058265 -19778.540401     28.237087
EOF
